{
  "features": [
    {
      "type": "Feature",
      "properties": {},
      "geometry": {
        "coordinates": [
          [
            [
              141.884164,
              45.492729
            ],
            [
              141.31334,
              43.17607
            ],
            [
              139.822421,
              42.500397
            ],
            [
              139.706661,
              38.215081
            ],
            [
              137.095634,
              36.737292
            ],
            [
              137.319436,
              37.420719
            ],
            [
              136.648029,
              37.124337
            ],
            [
              135.454416,
              35.564374
            ],
            [
              132.694188,
              35.351992
            ],
            [
              130.903769,
              34.127635
            ],
            [
              129.523654,
              33.197492
            ],
            [
              130.717267,
              30.476019
            ],
            [
              132.02278,
              32.66595
            ],
            [
              135.79012,
              33.384327
            ],
            [
              137.170234,
              34.588902
            ],
            [
              140.340768,
              35.017112
            ],
            [
              140.974874,
              35.776193
            ],
            [
              141.161376,
              37.331927
            ],
            [
              140.900273,
              38.215081
            ],
            [
              142.243087,
              39.433619
            ],
            [
              141.49708,
              40.63113
            ],
            [
              141.329228,
              42.508446
            ],
            [
              143.250198,
              42.00145
            ],
            [
              145.488221,
              43.207235
            ],
            [
              145.264419,
              44.14963
            ],
            [
              143.474,
              44.203032
            ],
            [
              143.250198,
              44.787251
            ],
            [
              141.884164,
              45.492729
            ]
          ]
        ],
        "type": "Polygon"
      },
      "id": "67eddee4cb2ce4cca00488e7652b407e"
    }
  ],
  "type": "FeatureCollection"
}